<kml xmlns="http://www.opengis.net/kml/2.2"><Document>
<Placemark id="kml_11">
<name>Kings</name><description><![CDATA[<center><table><tr><th colspan='2' align='center'><em>Attributes</em></th></tr><tr bgcolor="#E3E3F3">
<th>OBJECTID</th>
<td>29</td>
</tr><tr bgcolor="">
<th>FeatDesc</th>
<td>Geographic County</td>
</tr><tr bgcolor="#E3E3F3">
<th>NAME</th>
<td>Kings</td>
</tr><tr bgcolor="">
<th>CGNDB_KEY</th>
<td>CASZX</td>
</tr><tr bgcolor="#E3E3F3">
<th>SHAPE_Length</th>
<td>414497.6232767908</td>
</tr><tr bgcolor="">
<th>SHAPE_Area</th>
<td>2210538710.893126</td>
</tr><tr bgcolor="#E3E3F3">
<th>FullName</th>
<td>Kings County</td>
</tr></table></center>]]></description><ExtendedData>
  <Data name="fill-opacity"><value>0.4980392156862745</value></Data>
  <Data name="fill"><value>#ffff00</value></Data>
  <Data name="stroke-opacity"><value>1</value></Data>
  <Data name="stroke"><value>#ffff7e</value></Data>
  <Data name="stroke-width"><value>1</value></Data>
  <Data name="label-scale"><value>1</value></Data>
  <Data name="icon-scale"><value>0.8</value></Data>
  <Data name="OBJECTID"><value>29</value></Data>
  <Data name="FeatDesc"><value>Geographic County</value></Data>
  <Data name="NAME"><value>Kings</value></Data>
  <Data name="CGNDB_KEY"><value>CASZX</value></Data>
  <Data name="SHAPE_Length"><value>414497.6232767908</value></Data>
  <Data name="SHAPE_Area"><value>2210538710.893126</value></Data>
  <Data name="FullName"><value>Kings County</value></Data></ExtendedData>
  <MultiGeometry>
<Polygon>
<outerBoundaryIs>
  <LinearRing><coordinates>-64.4953301347441,45.3339050548502
-64.4591012188632,45.3277158605436
-64.4386264996774,45.3267615740643
-64.4187575754462,45.32254661407259
-64.3929291774821,45.3215983958391
-64.3696115117929,45.3160487173611
-64.3522788940974,45.3059947614431
-64.3341899660715,45.2993738261425
-64.3277921607735,45.28996902397899
-64.32630812372,45.2790422914997
-64.3289100899428,45.2700744447313
-64.3334015089947,45.26355718458449
-64.3444740583124,45.2593883177033
-64.3516077952142,45.2547727110388
-64.3565123727947,45.2406364965132
-64.3550542800378,45.2321182434132
-64.3583652776248,45.2257519253384
-64.3609930375911,45.2264475922794
-64.3602483845773,45.22267596181891
-64.3627778983863,45.21719403053041
-64.3655165786199,45.21395028800561
-64.3671263426526,45.2145712042251
-64.3703271310412,45.2125296316566
-64.3763912272304,45.20245412654399
-64.378464807822,45.2015754273706
-64.3810213627677,45.2025917382067
-64.3796522553641,45.20043559067
-64.3816870504359,45.1990341903777
-64.3843089907813,45.2003581326478
-64.3849020288337,45.19677730615751
-64.3903641547088,45.19590077603059
-64.3851001818543,45.19297982521509
-64.3822704896038,45.1953077284326
-64.3677293910279,45.198144625105
-64.3610544423494,45.1952754643785
-64.3611195166188,45.1942674078384
-64.3580775944511,45.1943531404504
-64.3588943332117,45.19341895643191
-64.35597241814,45.1914805403839
-64.3574763526755,45.19048329277611
-64.3564586754475,45.185154722424
-64.3598084230292,45.17887764413069
-64.3653209062297,45.1776605503226
-64.3563021284093,45.17663203129491
-64.3535264122685,45.1723900959434
-64.3529731745278,45.16982487150759
-64.3542475837452,45.1690977415076
-64.3512031288564,45.1656834675706
-64.3583420145997,45.1612687698927
-64.3582663303146,45.158639111071
-64.3616339091579,45.1585278532418
-64.3651253688255,45.1552367945399
-64.3666570647804,45.160942023884
-64.3667201790845,45.155704111559
-64.3694547064064,45.1556713459971
-64.3677581134259,45.1579825928883
-64.3720220601731,45.15641286561801
-64.3714967126885,45.1582203983435
-64.3734424317695,45.15844815610441
-64.3728762332656,45.1560623357325
-64.377751373165,45.1600183405508
-64.3738950172358,45.15493836798251
-64.3760085580638,45.1543197157778
-64.3763988612428,45.155841692184
-64.3794881852576,45.15627698662031
-64.3773559247375,45.1544294840062
-64.3796088894541,45.15336979277551
-64.3806118836814,45.15455038893441
-64.3810365092252,45.1522201243251
-64.3781207507755,45.1536470124886
-64.3740142224451,45.1530478369538
-64.3785014028622,45.1526024374541
-64.3833558555372,45.1497561951002
-64.3828055784119,45.1516730148947
-64.3841302667641,45.1505848647515
-64.3842296791686,45.1515387454395
-64.3867602944526,45.1516043452455
-64.3851050754686,45.15270103698721
-64.3875232476029,45.15201005271949
-64.3849585433531,45.14974937636949
-64.3883144065735,45.1503279249185
-64.3868151565088,45.1494813011247
-64.3877365958058,45.1486793529743
-64.3909092736397,45.148742851381
-64.389522442565,45.1467725462661
-64.3974157131386,45.1473891311552
-64.3967293758115,45.1505199871586
-64.3984576010082,45.1478225693096
-64.4020285355695,45.1492944134126
-64.4043496928491,45.14866397877
-64.4045361479015,45.1503069315071
-64.4077868999618,45.14770748096231
-64.4111009932652,45.15042926538081
-64.4113666138277,45.147434110083
-64.4070639342639,45.14606495301369
-64.4013014501971,45.1471460056196
-64.3983140370573,45.1452352814168
-64.3993203954923,45.14417804443001
-64.3974760851373,45.1448898038176
-64.3978171768775,45.1436562497959
-64.3967805868299,45.145058769985
-64.3947598825567,45.14404489586159
-64.3975233787537,45.14260812530139
-64.3931175304179,45.14301118406189
-64.3929478946072,45.1440233059405
-64.3919270553139,45.14321449690851
-64.3925589852358,45.14427926930221
-64.3859239752767,45.14354990062009
-64.3797924551671,45.144947414971
-64.378744094679,45.1359116008653
-64.3819005404888,45.1341144973873
-64.3831446320667,45.1349167846203
-64.3846732920937,45.1331816305859
-64.3848151338519,45.1322635458216
-64.3816981562613,45.1334751264391
-64.3837051328053,45.1281686173618
-64.3874409565252,45.1290000429995
-64.3855432049148,45.13060919136571
-64.3867909202538,45.1296200570885
-64.3879959633532,45.1310159793576
-64.3881388013421,45.1294596485092
-64.3889636841897,45.13064774218069
-64.3922304601087,45.1303270968703
-64.3907891550499,45.1333944402539
-64.3939355975364,45.1297976936775
-64.3871139965945,45.1272090757431
-64.3888569953001,45.1263552268523
-64.3921601747956,45.1271233479955
-64.3962196463928,45.1303438206372
-64.394232912625,45.1304164134857
-64.393712493838,45.1316929255697
-64.3944155540619,45.1304854672341
-64.3951384486935,45.1313045213136
-64.4006650362487,45.1308199893731
-64.4020303114221,45.12967138496581
-64.4035718531738,45.1304415136981
-64.4047619901482,45.1286590510227
-64.4035302671046,45.1268985886344
-64.4022288636095,45.1284928029504
-64.3972910964552,45.1298516143483
-64.3992444861652,45.1285776956314
-64.3967491117431,45.1291932912736
-64.39439041403,45.1270707811907
-64.3945467918899,45.1221045739511
-64.3920121501922,45.1253239115718
-64.3922105669895,45.1212473180468
-64.3910743713471,45.1233612670193
-64.3891576539764,45.12208115704259
-64.3916031067254,45.1196902259043
-64.3893284001308,45.1196333130786
-64.3891203260743,45.1214334877527
-64.3866433286103,45.1206390416787
-64.388471138172,45.1219274773519
-64.3789397231185,45.1212787591466
-64.3706097813979,45.1231685990042
-64.36721036699,45.1253247650882
-64.3670155024412,45.116469393285
-64.3677042682336,45.11549795834159
-64.3687098176587,45.1200164912478
-64.3678940161037,45.1157774396391
-64.3696673482169,45.11279190665761
-64.3659305949599,45.1073879113732
-64.3674486189124,45.1047889395412
-64.3873314461763,45.1005991259103
-64.3916355020876,45.0945161993928
-64.3976305461028,45.09741067637021
-64.4060149980397,45.097375699258
-64.4086506478009,45.0942106022326
-64.4056987762735,45.0893031938442
-64.4127121209355,45.0884271768812
-64.4165278770964,45.0847134727289
-64.4195107815792,45.0871006094688
-64.4259917248577,45.0871995107751
-64.4250750860561,45.0822254126713
-64.4289202848612,45.0794487395105
-64.4326250630476,45.083256896678
-64.435025741897,45.0828180762594
-64.4353451632076,45.0807571424382
-64.4364242104024,45.0815312352922
-64.4356361545629,45.0792995231906
-64.4384290243209,45.08295926521799
-64.4439257075331,45.0833936701644
-64.4438907810382,45.0844778997435
-64.4461046806527,45.0810688173092
-64.4480447853146,45.08383209520611
-64.4513355248941,45.082969365756
-64.4544855852888,45.07747929707419
-64.45566221989,45.0799739667732
-64.4614357824636,45.0795810273034
-64.462822248423,45.0777998246115
-64.4671524195071,45.07915036713101
-64.469770794905,45.07678334739609
-64.4652808699716,45.0755497233772
-64.4687682187183,45.0750610475786
-64.4681532182834,45.0727101194432
-64.4709818121231,45.07368300335081
-64.4744944919556,45.0729311496462
-64.4758478419773,45.07437700333369
-64.4767617428502,45.0733831802426
-64.4782089684632,45.07568387385891
-64.4813506223245,45.0753369133922
-64.481457680422,45.0771987208244
-64.4839755123901,45.07629420401599
-64.4851646918563,45.0791391619203
-64.4880967787566,45.0798659754026
-64.4909298888862,45.078147474419
-64.4938386715852,45.0804607357651
-64.4910103709772,45.0780275996562
-64.4879089405012,45.0796633525958
-64.4853453121083,45.07904895508539
-64.4859018310268,45.0770156765004
-64.4905868787778,45.0768781948543
-64.4851139307669,45.07737105530631
-64.4836736219822,45.0760870339696
-64.4817636753454,45.07712237623959
-64.4815632658572,45.0751636603724
-64.478522546803,45.0754386466875
-64.4768502147279,45.07306013100379
-64.4753606283049,45.0736609928574
-64.475741322927,45.07253858785
-64.4711977563074,45.07332050888031
-64.4682316420894,45.07229988845101
-64.4681485966274,45.07502535638631
-64.4646431883594,45.075553320316
-64.4676423382686,45.0773933997246
-64.4691625558728,45.0768207809462
-64.468295302876,45.0779858771753
-64.4662935770671,45.07868016009549
-64.4625172626934,45.0773491387313
-64.4607514086998,45.0789506533829
-64.4557333837222,45.0795251209062
-64.4552276244086,45.07651866912601
-64.4498497239385,45.0832033782725
-64.447408429422,45.0828481991495
-64.4468478295793,45.0799716101795
-64.4435784178454,45.08020683124679
-64.4413913067173,45.0787900944883
-64.444457458895,45.0804271274985
-64.4446725289096,45.0827045729633
-64.4389424946692,45.0824544311582
-64.4378237303936,45.0790475828035
-64.4357686637767,45.07811905327969
-64.4329358487541,45.0825382270627
-64.4319934101619,45.079791916542
-64.4284640648405,45.0787820130093
-64.4237978897761,45.0821268519515
-64.424732560065,45.0865548766136
-64.4167329540592,45.0837054282207
-64.4114146459607,45.0877863895974
-64.4042143527987,45.0878442749469
-64.4041583376516,45.0905887001442
-64.4067389924279,45.09376435946031
-64.4053195306715,45.0953957687984
-64.4003123648131,45.0959226814437
-64.3977387546736,45.09274327786
-64.3910990085462,45.0905595103649
-64.3914491026439,45.09206717638921
-64.3857599385806,45.0956159028395
-64.385489950713,45.0964969340509
-64.3872606588967,45.09535572136831
-64.384619755683,45.0990073741736
-64.374651917929,45.10001883257739
-64.3732816094902,45.0992161590171
-64.3736080455517,45.1006921237568
-64.3648095726196,45.0981087926297
-64.3655597101927,45.0975336129896
-64.3640516548538,45.0982777196226
-64.35982605586,45.0974034585701
-64.3594852902058,45.0931168934961
-64.3560293017121,45.0929860479844
-64.3587983650441,45.0971030498425
-64.3549832043556,45.0962188551795
-64.3556980719189,45.0933815585169
-64.3538270188655,45.0946036934532
-64.3539520928957,45.0958093506782
-64.3554005218965,45.0956310371978
-64.3544299693291,45.0966487719591
-64.3464706942557,45.1019989407376
-64.3415981696146,45.10180450573291
-64.3391290778624,45.1030784304352
-64.339301620914,45.10507660084579
-64.3373192595097,45.1050467216837
-64.3388881998915,45.1031595701636
-64.3356851059659,45.1035958567953
-64.3379850493794,45.11238256381059
-64.3348383486581,45.1149335805057
-64.3351192069177,45.1179710092783
-64.3329661472569,45.1207435776118
-64.3344733476792,45.12234808942619
-64.3341373375308,45.12026000917411
-64.3362240335387,45.1193444374043
-64.3351185475246,45.1190999177931
-64.3388712218853,45.1181513046598
-64.3396119723711,45.1214462589583
-64.336253556083,45.13117868223501
-64.3296537943435,45.1360644396917
-64.3120360661136,45.138583435484
-64.2928526893793,45.1366928547409
-64.2919091167835,45.13788671727241
-64.2870510696839,45.1373948081236
-64.2878325596645,45.1338882122027
-64.2852076798004,45.1318500774674
-64.2842580659118,45.1332882542533
-64.282549232509,45.13217036008499
-64.2817193427722,45.12974686986161
-64.2820686130142,45.1316009063644
-64.2804979861349,45.13017645099781
-64.2816188062738,45.131668787243
-64.2795423447562,45.1310589887672
-64.2815447874589,45.1291070053647
-64.2809114876398,45.12512815116919
-64.2827105012904,45.123187878544
-64.2813293198274,45.1228442143541
-64.2825166019396,45.1207757888452
-64.2851999098021,45.1204026559353
-64.2850923495873,45.11878265176339
-64.2818396258732,45.1148440355848
-64.2743027573622,45.1117966751281
-64.277928541975,45.1075298408324
-64.2757538982888,45.10486171841351
-64.2802142002838,45.1046902790281
-64.2715451373577,45.1054289612059
-64.2696688465788,45.107603059649
-64.2663578761376,45.10601230484941
-64.2706074561986,45.1044431995644
-64.270240279834,45.1010983288086
-64.2726468296468,45.09959357836959
-64.272763647725,45.0962524814687
-64.2753137268675,45.093710733149
-64.2823280419949,45.0901520910423
-64.286254627379,45.09314693478661
-64.288212400455,45.0930069427709
-64.292310879947,45.0908092068282
-64.2926351077376,45.0891267026524
-64.2982040313272,45.0876880538346
-64.2999054269207,45.0844334517936
-64.3021763821057,45.08522944323929
-64.306005881898,45.0833196373776
-64.3083047219113,45.079768210918
-64.3103872982242,45.0799972836154
-64.312114088337,45.0763371177938
-64.3134535901873,45.0781301857661
-64.3183172078589,45.0777154638466
-64.3134417060643,45.0778332622296
-64.3138402484087,45.0764297937954
-64.311503376143,45.07635403532769
-64.3105292611132,45.0792593054356
-64.3081540732769,45.07929103980529
-64.3023548006806,45.0848610352526
-64.299702797595,45.08412700539369
-64.2976195318212,45.08763349399419
-64.2918849115722,45.0894558000786
-64.2891329387775,45.0887959855411
-64.2917792526419,45.0901697933867
-64.2873241840348,45.0926721906706
-64.2850931324715,45.0913362491634
-64.2870775274271,45.0907998981106
-64.2848018040862,45.0910388674702
-64.2822160814402,45.089521422415
-64.2742369806326,45.092953100323
-64.2715395655666,45.0995499937542
-64.2692373143557,45.10114998865
-64.2693652963106,45.1038860044888
-64.266862557726,45.1037724686677
-64.266718569276,45.1018017782176
-64.266708338596,45.1042134656838
-64.2635614272742,45.1031906220772
-64.2646004896073,45.10079905179621
-64.2615882832766,45.1010349095726
-64.264358340922,45.1009421607847
-64.2625827233286,45.10313393404071
-64.2655636639945,45.10435489167901
-64.2652751133297,45.106829064841
-64.2683661031574,45.1089327027007
-64.2762779001437,45.1071576148915
-64.2755243515948,45.10825344713599
-64.2677041613585,45.1094081353163
-64.2654955888219,45.1118604058305
-64.2648539455603,45.1165385241951
-64.2732266294121,45.1172574392061
-64.274402237364,45.118780924436
-64.2652042282439,45.1239907878144
-64.2602515283281,45.1227745090566
-64.2592986514228,45.1198027440032
-64.2538676716854,45.1204116135
-64.2566137221412,45.1202824087676
-64.2550847023898,45.1216276567185
-64.2500296484927,45.1203762767074
-64.2466369388545,45.1172015446974
-64.2474983715621,45.11489939027021
-64.2423525691928,45.111819281801
-64.2448248238914,45.11045739544001
-64.2294882344775,45.109728790641
-64.2217227063518,45.1073618690461
-64.2111691242364,45.09506331297801
-64.1997086333958,45.0863016022345
-64.2009064361318,45.0856120836153
-64.193368980362,45.0815961965951
-64.1933684169191,45.0793106429175
-64.1921948172359,45.0803068031914
-64.1891754126679,45.0796685612377
-64.1848857870801,45.0767677722114
-64.1851594225547,45.0755001766262
-64.1845168043067,45.0768031077722
-64.1789761369704,45.0751321154948
-64.1769798640744,45.0732178731076
-64.5238534341427,44.836489235959
-64.5296078267433,44.8407598132979
-64.7706572364636,44.6639075327649
-65.0190873770324,45.0667853562079
-65.0088396661708,45.0721627198549
-64.9776500441088,45.0846715200001
-64.9700426101369,45.09102955972709
-64.949157445889,45.1040813857969
-64.9377951532912,45.1038193186372
-64.9296783897476,45.1057940438572
-64.896631629117,45.1232277915752
-64.8885676257902,45.1258084598519
-64.8860387658078,45.1280967620466
-64.8657749925263,45.13608295919351
-64.8605580546873,45.1362172911434
-64.8541986811281,45.13925113164031
-64.8453702871427,45.1405823961757
-64.8373533271338,45.143864086505
-64.8289593294928,45.1501794466542
-64.815977907893,45.15075573932351
-64.8117114020711,45.1522570874841
-64.8105305646248,45.15115069832699
-64.808243915214,45.1527031373213
-64.7982634584537,45.1533414585602
-64.7889164557112,45.1585760764057
-64.7703228186083,45.1642363303781
-64.761867146449,45.1705377774524
-64.743476428874,45.17180222953329
-64.743381267979,45.1705605657243
-64.7362552871961,45.1730861000081
-64.7208178146185,45.17509681419799
-64.7052158049051,45.1810559440335
-64.6970090400705,45.1811512524528
-64.6870908329481,45.1834631449184
-64.6810933713909,45.1861539718705
-64.6675032462998,45.1864451398726
-64.6640749960958,45.1887086406554
-64.6557578830285,45.19083512754219
-64.6462168125692,45.19733629085461
-64.6402887241179,45.1987475562908
-64.632790585035,45.1980269150533
-64.6229806771088,45.1998653612168
-64.6201212127396,45.2019375856784
-64.6190505541817,45.2002223699274
-64.6198021145215,45.20141643116721
-64.6167260050212,45.2035789548894
-64.6102027891713,45.2003730255627
-64.6072502030649,45.2004209152321
-64.5843511723193,45.209564962944
-64.5736329719328,45.2099507908102
-64.5603452725503,45.2132421922536
-64.5511719284719,45.21984370674231
-64.5370547884834,45.2253382587854
-64.5278398617055,45.2271496562392
-64.5245513469361,45.2267273910335
-64.5215213550251,45.2287976435348
-64.5189986771523,45.2287349173079
-64.5146057619462,45.2311111579217
-64.5127345380093,45.23015750443031
-64.5015393719766,45.23494554001091
-64.4978332195088,45.2357197393929
-64.4945732733104,45.23412690183601
-64.4959363691846,45.2356293923216
-64.4930064891639,45.23700626124461
-64.4881663690106,45.2364213538878
-64.4838487471027,45.2389223473847
-64.4785109951202,45.23978552957249
-64.4728692025928,45.23914464326249
-64.4705500984772,45.2411602594382
-64.4653396884916,45.2416899338778
-64.4627529496404,45.243569306507
-64.4594759207059,45.2432434524034
-64.4540614872494,45.2487589652243
-64.4510157194942,45.24995440789511
-64.4473084212375,45.2494937919763
-64.4408295767216,45.25588845861239
-64.4398759165379,45.2551686763866
-64.432215522304,45.257566716956
-64.4310535018637,45.2597614471224
-64.4261833421865,45.2615407693472
-64.4193076786391,45.2669436208251
-64.4158771815296,45.2688315213273
-64.4124747308718,45.2686216405897
-64.3996242084531,45.279004674544
-64.3972802135787,45.2847979058838
-64.3993925503672,45.29886704378261
-64.3983707446623,45.2998556007642
-64.3981675671618,45.2979620197449
-64.3975752258884,45.2992632355566
-64.3996205648671,45.2998970664086
-64.4028381025227,45.3073808268866
-64.4086119758684,45.3096617521022
-64.423412109522,45.3142352962272
-64.4333345443712,45.31456564483139
-64.4389319225936,45.3161973522584
-64.4424525294521,45.3154165916326
-64.4496069042665,45.31665272502111
-64.4515184552335,45.318164952878
-64.4586993996394,45.3178798509578
-64.4699735999666,45.3203221485783
-64.4716309892804,45.3218976184563
-64.4790670926188,45.3234109130312
-64.4815400585653,45.3272808831785
-64.4844874045577,45.3274613058239
-64.4860437471245,45.3261745739131
-64.4915933765839,45.3285595009213
-64.4970658573356,45.335020961233
-64.4953301347441,45.3339050548502</coordinates></LinearRing></outerBoundaryIs></Polygon>
<Polygon>
<outerBoundaryIs>
  <LinearRing><coordinates>-64.2643528513505,45.1462593141485
-64.2584193826716,45.14298243373641
-64.2610261188878,45.1413140149111
-64.2659764153604,45.14355557659741
-64.2616461496786,45.1419183823306
-64.2632136038921,45.14124662881271
-64.2618254956297,45.1416301462177
-64.2619433243426,45.13881202772389
-64.2643846261515,45.1386490062594
-64.2637031023599,45.1395101831843
-64.2664591868045,45.140253796657
-64.2649397407936,45.13872144331209
-64.2666900671419,45.1372786982006
-64.2682988269509,45.1381521837628
-64.2711123448303,45.1348338352227
-64.2753944052889,45.1345941770707
-64.274866862759,45.1363921292183
-64.270284054196,45.13768814341859
-64.2702581649828,45.1409911509908
-64.2679523750143,45.1421473995239
-64.2694936323049,45.14150195699389
-64.2697414700896,45.1430411853813
-64.2708187599722,45.1379527770189
-64.2750549461547,45.1371848808362
-64.2767122227795,45.1343786238406
-64.2786737305585,45.13579290212151
-64.2713909181149,45.1442937934199
-64.2698822857808,45.14568945175
-64.2643528513505,45.1462593141485</coordinates></LinearRing></outerBoundaryIs></Polygon>
<Polygon>
<outerBoundaryIs>
  <LinearRing><coordinates>-64.3624742582886,45.10765334428
-64.3598682758939,45.10759618882101
-64.3588456099586,45.10526430413721
-64.3636118869786,45.1047664050203
-64.3575516785808,45.10446233319189
-64.3607674917364,45.1037102201763
-64.357732030441,45.1034906992326
-64.3580047638664,45.101182824398
-64.3631106115409,45.104239485298
-64.3679340653829,45.10426768421389
-64.3663536971841,45.10599387909019
-64.3632136187262,45.1065121088546
-64.3626688824086,45.10552120646659
-64.3624742582886,45.10765334428</coordinates></LinearRing></outerBoundaryIs></Polygon>
<Polygon>
<outerBoundaryIs>
  <LinearRing><coordinates>-64.3413629122886,45.10429715954069
-64.3421427336659,45.1024795413708
-64.3446446651003,45.1027714734357
-64.3445789168839,45.10386956340769
-64.3413629122886,45.10429715954069</coordinates></LinearRing></outerBoundaryIs></Polygon>
<Polygon>
<outerBoundaryIs>
  <LinearRing><coordinates>-64.3862566484927,45.1489855744941
-64.3862094503711,45.1475098731837
-64.3883212296009,45.1467829827312
-64.3888786978446,45.14810575002699
-64.3862566484927,45.1489855744941</coordinates></LinearRing></outerBoundaryIs></Polygon>
<Polygon>
<outerBoundaryIs>
  <LinearRing><coordinates>-64.3657318265052,45.1108343677437
-64.3666626556565,45.1096205889789
-64.3645023808344,45.1096536232771
-64.3666400972127,45.10862166460301
-64.3657318265052,45.1108343677437</coordinates></LinearRing></outerBoundaryIs></Polygon>
<Polygon>
<outerBoundaryIs>
  <LinearRing><coordinates>-64.3670964457188,45.1144808396914
-64.3685122306331,45.1124393867216
-64.3681886341597,45.1147522119502
-64.3670964457188,45.1144808396914</coordinates></LinearRing></outerBoundaryIs></Polygon>
<Polygon>
<outerBoundaryIs>
  <LinearRing><coordinates>-64.3755525671163,45.10073982923219
-64.3741942210608,45.10022508095139
-64.3804457866449,45.0998355123366
-64.3755525671163,45.10073982923219</coordinates></LinearRing></outerBoundaryIs></Polygon>
<Polygon>
<outerBoundaryIs>
  <LinearRing><coordinates>-64.3665914224845,45.1128692810208
-64.3669146631139,45.1105924707358
-64.3687168637623,45.11174650898941
-64.3665914224845,45.1128692810208</coordinates></LinearRing></outerBoundaryIs></Polygon>
<Polygon>
<outerBoundaryIs>
  <LinearRing><coordinates>-64.3404864704406,45.1042147323508
-64.3396626887576,45.1033944445207
-64.3418398622783,45.1019213897609
-64.3404864704406,45.1042147323508</coordinates></LinearRing></outerBoundaryIs></Polygon>
<Polygon>
<outerBoundaryIs>
  <LinearRing><coordinates>-64.3635411089514,45.107988078614
-64.3653740176278,45.1066492219997
-64.3658538133947,45.1077930084715
-64.3635411089514,45.107988078614</coordinates></LinearRing></outerBoundaryIs></Polygon>
<Polygon>
<outerBoundaryIs>
  <LinearRing><coordinates>-64.3371033193772,45.109573539059
-64.338425253342,45.1092961019674
-64.3381162633893,45.11087053977619
-64.3371033193772,45.109573539059</coordinates></LinearRing></outerBoundaryIs></Polygon>
<Polygon>
<outerBoundaryIs>
  <LinearRing><coordinates>-64.3432104581474,45.1025354014941
-64.3423595219281,45.1020215036413
-64.345079869152,45.1019264830382
-64.3432104581474,45.1025354014941</coordinates></LinearRing></outerBoundaryIs></Polygon>
<Polygon>
<outerBoundaryIs>
  <LinearRing><coordinates>-64.3702137948552,45.1562148861927
-64.3709223221237,45.1548068313196
-64.3717891829113,45.15557364027499
-64.3702137948552,45.1562148861927</coordinates></LinearRing></outerBoundaryIs></Polygon></MultiGeometry></Placemark></Document></kml>