<kml xmlns="http://www.opengis.net/kml/2.2"><Document>
<Placemark id="kml_11">
<name>Kings</name><description><![CDATA[<center><table><tr><th colspan='2' align='center'><em>Attributes</em></th></tr><tr bgcolor="#E3E3F3">
<th>OBJECTID</th>
<td>29</td>
</tr><tr bgcolor="">
<th>FeatDesc</th>
<td>Geographic County</td>
</tr><tr bgcolor="#E3E3F3">
<th>NAME</th>
<td>Kings</td>
</tr><tr bgcolor="">
<th>CGNDB_KEY</th>
<td>CASZX</td>
</tr><tr bgcolor="#E3E3F3">
<th>SHAPE_Length</th>
<td>414497.6232767908</td>
</tr><tr bgcolor="">
<th>SHAPE_Area</th>
<td>2210538710.893126</td>
</tr><tr bgcolor="#E3E3F3">
<th>FullName</th>
<td>Kings County</td>
</tr></table></center>]]></description><ExtendedData>
  <Data name="fill-opacity"><value>0.4980392156862745</value></Data>
  <Data name="fill"><value>#ffff00</value></Data>
  <Data name="stroke-opacity"><value>1</value></Data>
  <Data name="stroke"><value>#ffff7e</value></Data>
  <Data name="stroke-width"><value>1</value></Data>
  <Data name="label-scale"><value>1</value></Data>
  <Data name="icon-scale"><value>0.8</value></Data>
  <Data name="OBJECTID"><value>29</value></Data>
  <Data name="FeatDesc"><value>Geographic County</value></Data>
  <Data name="NAME"><value>Kings</value></Data>
  <Data name="CGNDB_KEY"><value>CASZX</value></Data>
  <Data name="SHAPE_Length"><value>414497.6232767908</value></Data>
  <Data name="SHAPE_Area"><value>2210538710.893126</value></Data>
  <Data name="FullName"><value>Kings County</value></Data></ExtendedData>
  <MultiGeometry>
<Polygon>
<outerBoundaryIs>
  <LinearRing><coordinates>-64.4953301347441,45.3339050548502
-64.3696115117929,45.3160487173611
-64.3341899660715,45.2993738261425
-64.32630812372,45.2790422914997
-64.3334015089947,45.26355718458449
-64.3516077952142,45.2547727110388
-64.3627778983863,45.21719403053041
-64.3903641547088,45.19590077603059
-64.3580775944511,45.1943531404504
-64.3653209062297,45.1776605503226
-64.3563021284093,45.17663203129491
-64.3512031288564,45.1656834675706
-64.3651253688255,45.1552367945399
-64.3666570647804,45.160942023884
-64.3667201790845,45.155704111559
-64.377751373165,45.1600183405508
-64.3810365092252,45.1522201243251
-64.3740142224451,45.1530478369538
-64.389522442565,45.1467725462661
-64.4111009932652,45.15042926538081
-64.3975233787537,45.14260812530139
-64.3797924551671,45.144947414971
-64.3837051328053,45.1281686173618
-64.3907891550499,45.1333944402539
-64.3888569953001,45.1263552268523
-64.393712493838,45.1316929255697
-64.4047619901482,45.1286590510227
-64.3972910964552,45.1298516143483
-64.3916031067254,45.1196902259043
-64.36721036699,45.1253247650882
-64.3674486189124,45.1047889395412
-64.3916355020876,45.0945161993928
-64.4060149980397,45.097375699258
-64.4056987762735,45.0893031938442
-64.4259917248577,45.0871995107751
-64.4289202848612,45.0794487395105
-64.4438907810382,45.0844778997435
-64.4544855852888,45.07747929707419
-64.4671524195071,45.07915036713101
-64.4681532182834,45.0727101194432
-64.4938386715852,45.0804607357651
-64.4853453121083,45.07904895508539
-64.4905868787778,45.0768781948543
-64.4682316420894,45.07229988845101
-64.468295302876,45.0779858771753
-64.4552276244086,45.07651866912601
-64.4498497239385,45.0832033782725
-64.4284640648405,45.0787820130093
-64.424732560065,45.0865548766136
-64.4042143527987,45.0878442749469
-64.4053195306715,45.0953957687984
-64.3910990085462,45.0905595103649
-64.3736080455517,45.1006921237568
-64.3560293017121,45.0929860479844
-64.3587983650441,45.0971030498425
-64.3556980719189,45.0933815585169
-64.3356851059659,45.1035958567953
-64.336253556083,45.13117868223501
-64.3120360661136,45.138583435484
-64.2870510696839,45.1373948081236
-64.2795423447562,45.1310589887672
-64.2850923495873,45.11878265176339
-64.2743027573622,45.1117966751281
-64.2802142002838,45.1046902790281
-64.2663578761376,45.10601230484941
-64.2753137268675,45.093710733149
-64.3183172078589,45.0777154638466
-64.2742369806326,45.092953100323
-64.2693652963106,45.1038860044888
-64.2615882832766,45.1010349095726
-64.2683661031574,45.1089327027007
-64.2762779001437,45.1071576148915
-64.2654955888219,45.1118604058305
-64.274402237364,45.118780924436
-64.2652042282439,45.1239907878144
-64.2500296484927,45.1203762767074
-64.2448248238914,45.11045739544001
-64.2217227063518,45.1073618690461
-64.1933684169191,45.0793106429175
-64.1769798640744,45.0732178731076
-64.5238534341427,44.836489235959
-64.5296078267433,44.8407598132979
-64.7706572364636,44.6639075327649
-65.0190873770324,45.0667853562079
-64.949157445889,45.1040813857969
-64.9296783897476,45.1057940438572
-64.8289593294928,45.1501794466542
-64.7982634584537,45.1533414585602
-64.761867146449,45.1705377774524
-64.6675032462998,45.1864451398726
-64.6402887241179,45.1987475562908
-64.6072502030649,45.2004209152321
-64.5370547884834,45.2253382587854
-64.4594759207059,45.2432434524034
-64.3996242084531,45.279004674544
-64.3975752258884,45.2992632355566
-64.4086119758684,45.3096617521022
-64.4699735999666,45.3203221485783
-64.4953301347441,45.3339050548502</coordinates></LinearRing></outerBoundaryIs></Polygon>
<Polygon>
<outerBoundaryIs>
  <LinearRing><coordinates>-64.2643528513505,45.1462593141485
-64.2619433243426,45.13881202772389
-64.2753944052889,45.1345941770707
-64.2697414700896,45.1430411853813
-64.2767122227795,45.1343786238406
-64.2643528513505,45.1462593141485</coordinates></LinearRing></outerBoundaryIs></Polygon>
<Polygon>
<outerBoundaryIs>
  <LinearRing><coordinates>-64.3624742582886,45.10765334428
-64.3580047638664,45.101182824398
-64.3679340653829,45.10426768421389
-64.3624742582886,45.10765334428</coordinates></LinearRing></outerBoundaryIs></Polygon></MultiGeometry></Placemark></Document></kml>