<?xml version="1.0" encoding="UTF-8"?>
<kml xmlns="http://www.opengis.net/kml/2.2" xmlns:gx="http://www.google.com/kml/ext/2.2" xmlns:kml="http://www.opengis.net/kml/2.2" xmlns:atom="http://www.w3.org/2005/Atom">
<Document>
	<name>Untitled</name>
	<gx:CascadingStyle kml:id="__managed_style_0414723FD22E962A9952">
		<styleUrl>https://earth.google.com/balloon_components/base/1.0.26.0/none_template.kml#main</styleUrl>
		<Style>
			<IconStyle>
				<scale>1.2</scale>
				<Icon>
					<href>https://earth.google.com/earth/rpc/cc/icon?color=1976d2&amp;id=2000&amp;scale=4</href>
				</Icon>
				<hotSpot x="64" y="128" xunits="pixels" yunits="insetPixels"/>
			</IconStyle>
			<LabelStyle>
			</LabelStyle>
			<LineStyle>
				<color>ff2dc0fb</color>
				<width>3</width>
			</LineStyle>
			<PolyStyle>
				<color>40ffffff</color>
			</PolyStyle>
			<BalloonStyle>
				<displayMode>hide</displayMode>
			</BalloonStyle>
		</Style>
	</gx:CascadingStyle>
	<gx:CascadingStyle kml:id="__managed_style_1BBC55D07B2E962A9951">
		<styleUrl>https://earth.google.com/balloon_components/base/1.0.26.0/none_template.kml#main</styleUrl>
		<Style>
			<IconStyle>
				<Icon>
					<href>https://earth.google.com/earth/rpc/cc/icon?color=1976d2&amp;id=2000&amp;scale=4</href>
				</Icon>
				<hotSpot x="64" y="128" xunits="pixels" yunits="insetPixels"/>
			</IconStyle>
			<LabelStyle>
			</LabelStyle>
			<LineStyle>
				<color>ff2dc0fb</color>
				<width>2</width>
			</LineStyle>
			<PolyStyle>
				<color>40ffffff</color>
			</PolyStyle>
			<BalloonStyle>
				<displayMode>hide</displayMode>
			</BalloonStyle>
		</Style>
	</gx:CascadingStyle>
	<StyleMap id="__managed_style_0D0267C4732E962A9951">
		<Pair>
			<key>normal</key>
			<styleUrl>#__managed_style_1BBC55D07B2E962A9951</styleUrl>
		</Pair>
		<Pair>
			<key>highlight</key>
			<styleUrl>#__managed_style_0414723FD22E962A9952</styleUrl>
		</Pair>
	</StyleMap>
	<Placemark id="0B549690402E9629C8A6">
		<name>wolfville_boundary</name>
		<LookAt>
			<longitude>-64.36499732928297</longitude>
			<latitude>45.08843025007686</latitude>
			<altitude>31.28026869812464</altitude>
			<heading>0</heading>
			<tilt>0</tilt>
			<gx:fovy>35</gx:fovy>
			<range>10358.47559626331</range>
			<altitudeMode>absolute</altitudeMode>
		</LookAt>
		<styleUrl>#__managed_style_0D0267C4732E962A9951</styleUrl>
		<Polygon>
			<outerBoundaryIs>
				<LinearRing>
					<coordinates>
						-64.35974451287208,45.09312506569903,0 -64.3697400358797,45.09342284039167,0 -64.3820157050056,45.09043174887034,0 -64.37943343278006,45.08106921493341,0 -64.36895543482198,45.07867175113708,0 -64.33526097935666,45.08470690902435,0 -64.33782545400935,45.09951078528498,0 -64.34981605320962,45.09428641967675,0 -64.35974451287208,45.09312506569903,0 
					</coordinates>
				</LinearRing>
			</outerBoundaryIs>
		</Polygon>
	</Placemark>
</Document>
</kml>
